"{\n    \"CCSDS_OMM_VERS\": \"2.0\",\n    \"COMMENT\": \"GENERATED VIA SPACE-TRACK.ORG API\",\n    \"CREATION_DATE\": \"2025-08-30T11:24:46\",\n    \"ORIGINATOR\": \"18 SPCS\",\n    \"OBJECT_NAME\": \"BEIDOU 3M18\",\n    \"OBJECT_ID\": \"2018-093B\",\n    \"CENTER_NAME\": \"EARTH\",\n    \"REF_FRAME\": \"TEME\",\n    \"TIME_SYSTEM\": \"UTC\",\n    \"MEAN_ELEMENT_THEORY\": \"SGP4\",\n    \"EPOCH\": \"2025-08-30T03:23:39.308352\",\n    \"MEAN_MOTION\": \"1.8623009929\",\n    \"ECCENTRICITY\": \"0.00078467264\",\n    \"INCLINATION\": \"54.181543\",\n    \"RA_OF_ASC_NODE\": \"192.16231\",\n    \"ARG_OF_PERICENTER\": \"321.85409\",\n    \"MEAN_ANOMALY\": \"38.071152\",\n    \"EPHEMERIS_TYPE\": \"0\",\n    \"CLASSIFICATION_TYPE\": \"U\",\n    \"NORAD_CAT_ID\": \"43707\",\n    \"ELEMENT_SET_NO\": \"999\",\n    \"REV_AT_EPOCH\": \"4611\",\n    \"BSTAR\": \"0\",\n    \"MEAN_MOTION_DOT\": \"0.000000358084\",\n    \"MEAN_MOTION_DDOT\": \"0\",\n    \"TLE_LINE0\": \"0 BEIDOU 3M18\",\n    \"TLE_LINE1\": \"1 43707U 18093B   25242.14142718  .00000036  00000-0  00000-0 0  9994\",\n    \"TLE_LINE2\": \"2 43707  54.1815 192.1623 0007847 321.8541  38.0712  1.86230099 46112\",\n    \"SEMIMAJOR_AXIS\": \"27906.279\",\n    \"PERIOD\": \"773.237\",\n    \"APOAPSIS\": \"21550.041\",\n    \"PERIAPSIS\": \"21506.246\",\n    \"OBJECT_TYPE\": \"PAYLOAD\",\n    \"DECAYED\": \"0\"\n}"